ONEWEB-0319             
1 49105U 21075AG  25315.31252537  .00000141  00000+0  32943-3 0  9997
2 49105  87.9128  49.1990 0001274  97.9197 262.2080 13.17651390204916
ONEWEB-0323             
1 49106U 21075AH  25315.23112161  .00000152  00000+0  38585-3 0  9997
2 49106  87.8976  33.9432 0001083  90.5595 269.5658 13.12442975205967
ONEWEB-0329             
1 49107U 21075AJ  25315.24502776 -.00000009  00000+0 -56678-4 0  9991
2 49107  87.9125  49.2151 0001584  95.9913 264.1399 13.17648376204883
ONEWEB-0330             
1 49108U 21075AK  25315.24587921  .00000046  00000+0  85717-4 0  9992
2 49108  87.9127  49.2201 0001701  91.1045 269.0281 13.17650206204921
ONEWEB-0292             
1 49186U 21083A   25315.14528465  .00000118  00000+0  28866-3 0  9995
2 49186  87.9009   3.6011 0001618  98.2833 261.8479 13.13469014202309
ONEWEB-0303             
1 49187U 21083B   25315.23496038 -.00000020  00000+0 -82518-4 0  9995
2 49187  87.9222  18.7447 0001612  99.7797 260.3517 13.18687475201254
ONEWEB-0306             
1 49188U 21083C   25315.22506400  .00000088  00000+0  19151-3 0  9994
2 49188  87.9219  18.7314 0002017  99.0064 261.1297 13.18687727201292
ONEWEB-0307             
1 49189U 21083D   25315.21553048  .00000241  00000+0  62632-3 0  9997
2 49189  87.9007   3.5797 0001831  99.4818 260.6518 13.13470989202318
ONEWEB-0320             
1 49190U 21083E   25315.23248723 -.00000015  00000+0 -71272-4 0  9994
2 49190  87.9224  18.7601 0001864 101.1186 259.0156 13.18687033201255
ONEWEB-0321             
1 49191U 21083F   25315.24864704  .00000050  00000+0  91898-4 0  9992
2 49191  87.9183 317.8982 0002151  90.7964 269.3415 13.20772944208069
ONEWEB-0322             
1 49192U 21083G   25315.21130065  .00000377  00000+0  99761-3 0  9994
2 49192  87.9011   3.5814 0002304 103.8996 256.2390 13.13468135202308
ONEWEB-0324             
1 49193U 21083H   25315.21846942  .00000092  00000+0  20046-3 0  9997
2 49193  87.9218  18.7398 0001836  94.4736 265.6606 13.18687068201271
ONEWEB-0325             
1 49194U 21083J   25315.22175436 -.00000257  00000+0 -68455-3 0  9993
2 49194  87.9219  18.7577 0001844 100.6143 259.5197 13.18685474201280
ONEWEB-0326             
1 49195U 21083K   25315.23674434  .00000010  00000+0 -66863-5 0  9996
2 49195  87.9221  18.7424 0001496 104.7902 255.3396 13.18686564201271
ONEWEB-0327             
1 49196U 21083L   25315.23647288 -.00000007  00000+0 -49404-4 0  9992
2 49196  87.9211  18.7643 0001544 109.2314 250.8985 13.18687110201299
ONEWEB-0328             
1 49197U 21083M   25315.20114855  .00000269  00000+0  70239-3 0  9996
2 49197  87.9023   3.5272 0001819  92.4755 267.6583 13.13470617202285
ONEWEB-0331             
1 49198U 21083N   25315.23001748  .00000035  00000+0  56462-4 0  9990
2 49198  87.9217  18.7359 0001463  94.6583 265.4716 13.18687144201286
