[{"OBJECT_NAME":"ONEWEB-0319","OBJECT_ID":"2021-075AG","EPOCH":"2025-11-11T07:30:02.191968","MEAN_MOTION":13.1765139,"ECCENTRICITY":0.00012744,"INCLINATION":87.9128,"RA_OF_ASC_NODE":49.199,"ARG_OF_PERICENTER":97.9197,"MEAN_ANOMALY":262.208,"EPHEMERIS_TYPE":0,"CLASSIFICATION_TYPE":"U","NORAD_CAT_ID":49105,"ELEMENT_SET_NO":999,"REV_AT_EPOCH":20491,"BSTAR":0.00032943219,"MEAN_MOTION_DOT":1.41e-6,"MEAN_MOTION_DDOT":0},{"OBJECT_NAME":"ONEWEB-0323","OBJECT_ID":"2021-075AH","EPOCH":"2025-11-11T05:32:48.907104","MEAN_MOTION":13.12442975,"ECCENTRICITY":0.00010835,"INCLINATION":87.8976,"RA_OF_ASC_NODE":33.9432,"ARG_OF_PERICENTER":90.5595,"MEAN_ANOMALY":269.5658,"EPHEMERIS_TYPE":0,"CLASSIFICATION_TYPE":"U","NORAD_CAT_ID":49106,"ELEMENT_SET_NO":999,"REV_AT_EPOCH":20596,"BSTAR":0.00038584569,"MEAN_MOTION_DOT":1.52e-6,"MEAN_MOTION_DDOT":0},{"OBJECT_NAME":"ONEWEB-0329","OBJECT_ID":"2021-075AJ","EPOCH":"2025-11-11T05:52:50.398464","MEAN_MOTION":13.17648376,"ECCENTRICITY":0.00015849,"INCLINATION":87.9125,"RA_OF_ASC_NODE":49.2151,"ARG_OF_PERICENTER":95.9913,"MEAN_ANOMALY":264.1399,"EPHEMERIS_TYPE":0,"CLASSIFICATION_TYPE":"U","NORAD_CAT_ID":49107,"ELEMENT_SET_NO":999,"REV_AT_EPOCH":20488,"BSTAR":-5.6677924e-5,"MEAN_MOTION_DOT":-9.0e-8,"MEAN_MOTION_DDOT":0},{"OBJECT_NAME":"ONEWEB-0330","OBJECT_ID":"2021-075AK","EPOCH":"2025-11-11T05:54:03.963744","MEAN_MOTION":13.17650206,"ECCENTRICITY":0.0001701,"INCLINATION":87.9127,"RA_OF_ASC_NODE":49.2201,"ARG_OF_PERICENTER":91.1045,"MEAN_ANOMALY":269.0281,"EPHEMERIS_TYPE":0,"CLASSIFICATION_TYPE":"U","NORAD_CAT_ID":49108,"ELEMENT_SET_NO":999,"REV_AT_EPOCH":20492,"BSTAR":8.5717458e-5,"MEAN_MOTION_DOT":4.6e-7,"MEAN_MOTION_DDOT":0},{"OBJECT_NAME":"ONEWEB-0292","OBJECT_ID":"2021-083A","EPOCH":"2025-11-11T03:29:12.593760","MEAN_MOTION":13.13469014,"ECCENTRICITY":0.00016185,"INCLINATION":87.9009,"RA_OF_ASC_NODE":3.6011,"ARG_OF_PERICENTER":98.2833,"MEAN_ANOMALY":261.8479,"EPHEMERIS_TYPE":0,"CLASSIFICATION_TYPE":"U","NORAD_CAT_ID":49186,"ELEMENT_SET_NO":999,"REV_AT_EPOCH":20230,"BSTAR":0.00028865933,"MEAN_MOTION_DOT":1.18e-6,"MEAN_MOTION_DDOT":0},{"OBJECT_NAME":"ONEWEB-0303","OBJECT_ID":"2021-083B","EPOCH":"2025-11-11T05:38:20.576832","MEAN_MOTION":13.18687475,"ECCENTRICITY":0.00016127,"INCLINATION":87.9222,"RA_OF_ASC_NODE":18.7447,"ARG_OF_PERICENTER":99.7797,"MEAN_ANOMALY":260.3517,"EPHEMERIS_TYPE":0,"CLASSIFICATION_TYPE":"U","NORAD_CAT_ID":49187,"ELEMENT_SET_NO":999,"REV_AT_EPOCH":20125,"BSTAR":-8.2518435e-5,"MEAN_MOTION_DOT":-2.0e-7,"MEAN_MOTION_DDOT":0},{"OBJECT_NAME":"ONEWEB-0306","OBJECT_ID":"2021-083C","EPOCH":"2025-11-11T05:24:05.529600","MEAN_MOTION":13.18687727,"ECCENTRICITY":0.00020175,"INCLINATION":87.9219,"RA_OF_ASC_NODE":18.7314,"ARG_OF_PERICENTER":99.0064,"MEAN_ANOMALY":261.1297,"EPHEMERIS_TYPE":0,"CLASSIFICATION_TYPE":"U","NORAD_CAT_ID":49188,"ELEMENT_SET_NO":999,"REV_AT_EPOCH":20129,"BSTAR":0.00019151473,"MEAN_MOTION_DOT":8.8e-7,"MEAN_MOTION_DDOT":0},{"OBJECT_NAME":"ONEWEB-0307","OBJECT_ID":"2021-083D","EPOCH":"2025-11-11T05:10:21.833472","MEAN_MOTION":13.13470989,"ECCENTRICITY":0.0001831,"INCLINATION":87.9007,"RA_OF_ASC_NODE":3.5797,"ARG_OF_PERICENTER":99.4818,"MEAN_ANOMALY":260.6518,"EPHEMERIS_TYPE":0,"CLASSIFICATION_TYPE":"U","NORAD_CAT_ID":49189,"ELEMENT_SET_NO":999,"REV_AT_EPOCH":20231,"BSTAR":0.00062631898,"MEAN_MOTION_DOT":2.41e-6,"MEAN_MOTION_DDOT":0},{"OBJECT_NAME":"ONEWEB-0320","OBJECT_ID":"2021-083E","EPOCH":"2025-11-11T05:34:46.896672","MEAN_MOTION":13.18687033,"ECCENTRICITY":0.00018647,"INCLINATION":87.9224,"RA_OF_ASC_NODE":18.7601,"ARG_OF_PERICENTER":101.1186,"MEAN_ANOMALY":259.0156,"EPHEMERIS_TYPE":0,"CLASSIFICATION_TYPE":"U","NORAD_CAT_ID":49190,"ELEMENT_SET_NO":999,"REV_AT_EPOCH":20125,"BSTAR":-7.1272155e-5,"MEAN_MOTION_DOT":-1.5e-7,"MEAN_MOTION_DDOT":0},{"OBJECT_NAME":"ONEWEB-0321","OBJECT_ID":"2021-083F","EPOCH":"2025-11-11T05:58:03.104256","MEAN_MOTION":13.20772944,"ECCENTRICITY":0.00021513,"INCLINATION":87.9183,"RA_OF_ASC_NODE":317.8982,"ARG_OF_PERICENTER":90.7964,"MEAN_ANOMALY":269.3415,"EPHEMERIS_TYPE":0,"CLASSIFICATION_TYPE":"U","NORAD_CAT_ID":49191,"ELEMENT_SET_NO":999,"REV_AT_EPOCH":20806,"BSTAR":9.1898043e-5,"MEAN_MOTION_DOT":5.0e-7,"MEAN_MOTION_DDOT":0},{"OBJECT_NAME":"ONEWEB-0322","OBJECT_ID":"2021-083G","EPOCH":"2025-11-11T05:04:16.376160","MEAN_MOTION":13.13468135,"ECCENTRICITY":0.00023047,"INCLINATION":87.9011,"RA_OF_ASC_NODE":3.5814,"ARG_OF_PERICENTER":103.8996,"MEAN_ANOMALY":256.239,"EPHEMERIS_TYPE":0,"CLASSIFICATION_TYPE":"U","NORAD_CAT_ID":49192,"ELEMENT_SET_NO":999,"REV_AT_EPOCH":20230,"BSTAR":0.00099761312,"MEAN_MOTION_DOT":3.77e-6,"MEAN_MOTION_DDOT":0},{"OBJECT_NAME":"ONEWEB-0324","OBJECT_ID":"2021-083H","EPOCH":"2025-11-11T05:14:35.757888","MEAN_MOTION":13.18687068,"ECCENTRICITY":0.00018367,"INCLINATION":87.9218,"RA_OF_ASC_NODE":18.7398,"ARG_OF_PERICENTER":94.4736,"MEAN_ANOMALY":265.6606,"EPHEMERIS_TYPE":0,"CLASSIFICATION_TYPE":"U","NORAD_CAT_ID":49193,"ELEMENT_SET_NO":999,"REV_AT_EPOCH":20127,"BSTAR":0.00020045607,"MEAN_MOTION_DOT":9.2e-7,"MEAN_MOTION_DDOT":0},{"OBJECT_NAME":"ONEWEB-0325","OBJECT_ID":"2021-083J","EPOCH":"2025-11-11T05:19:19.576704","MEAN_MOTION":13.18685474,"ECCENTRICITY":0.00018444,"INCLINATION":87.9219,"RA_OF_ASC_NODE":18.7577,"ARG_OF_PERICENTER":100.6143,"MEAN_ANOMALY":259.5197,"EPHEMERIS_TYPE":0,"CLASSIFICATION_TYPE":"U","NORAD_CAT_ID":49194,"ELEMENT_SET_NO":999,"REV_AT_EPOCH":20128,"BSTAR":-0.0006845548,"MEAN_MOTION_DOT":-2.57e-6,"MEAN_MOTION_DDOT":0},{"OBJECT_NAME":"ONEWEB-0326","OBJECT_ID":"2021-083K","EPOCH":"2025-11-11T05:40:54.710976","MEAN_MOTION":13.18686564,"ECCENTRICITY":0.00014966,"INCLINATION":87.9221,"RA_OF_ASC_NODE":18.7424,"ARG_OF_PERICENTER":104.7902,"MEAN_ANOMALY":255.3396,"EPHEMERIS_TYPE":0,"CLASSIFICATION_TYPE":"U","NORAD_CAT_ID":49195,"ELEMENT_SET_NO":999,"REV_AT_EPOCH":20127,"BSTAR":-6.686344e-6,"MEAN_MOTION_DOT":1.0e-7,"MEAN_MOTION_DDOT":0},{"OBJECT_NAME":"ONEWEB-0327","OBJECT_ID":"2021-083L","EPOCH":"2025-11-11T05:40:31.256832","MEAN_MOTION":13.1868711,"ECCENTRICITY":0.00015447,"INCLINATION":87.9211,"RA_OF_ASC_NODE":18.7643,"ARG_OF_PERICENTER":109.2314,"MEAN_ANOMALY":250.8985,"EPHEMERIS_TYPE":0,"CLASSIFICATION_TYPE":"U","NORAD_CAT_ID":49196,"ELEMENT_SET_NO":999,"REV_AT_EPOCH":20129,"BSTAR":-4.9404327e-5,"MEAN_MOTION_DOT":-7.0e-8,"MEAN_MOTION_DDOT":0},{"OBJECT_NAME":"ONEWEB-0328","OBJECT_ID":"2021-083M","EPOCH":"2025-11-11T04:49:39.234720","MEAN_MOTION":13.13470617,"ECCENTRICITY":0.00018192,"INCLINATION":87.9023,"RA_OF_ASC_NODE":3.5272,"ARG_OF_PERICENTER":92.4755,"MEAN_ANOMALY":267.6583,"EPHEMERIS_TYPE":0,"CLASSIFICATION_TYPE":"U","NORAD_CAT_ID":49197,"ELEMENT_SET_NO":999,"REV_AT_EPOCH":20228,"BSTAR":0.0007023947,"MEAN_MOTION_DOT":2.69e-6,"MEAN_MOTION_DDOT":0},{"OBJECT_NAME":"ONEWEB-0331","OBJECT_ID":"2021-083N","EPOCH":"2025-11-11T05:31:13.510272","MEAN_MOTION":13.18687144,"ECCENTRICITY":0.00014638,"INCLINATION":87.9217,"RA_OF_ASC_NODE":18.7359,"ARG_OF_PERICENTER":94.6583,"MEAN_ANOMALY":265.4716,"EPHEMERIS_TYPE":0,"CLASSIFICATION_TYPE":"U","NORAD_CAT_ID":49198,"ELEMENT_SET_NO":999,"REV_AT_EPOCH":20128,"BSTAR":5.6462053e-5,"MEAN_MOTION_DOT":3.5e-7,"MEAN_MOTION_DDOT":0}]
